[{"OBJECT_NAME":"STARLINK-3605","OBJECT_ID":"2022-017AP","EPOCH":"2026-03-09T21:22:12.350208","MEAN_MOTION":15.08817665,"ECCENTRICITY":0.00014293,"INCLINATION":53.219,"RA_OF_ASC_NODE":328.298,"ARG_OF_PERICENTER":84.9132,"MEAN_ANOMALY":275.2023,"EPHEMERIS_TYPE":0,"CLASSIFICATION_TYPE":"U","NORAD_CAT_ID":51805,"ELEMENT_SET_NO":999,"REV_AT_EPOCH":22427,"BSTAR":0.0002416074,"MEAN_MOTION_DOT":3.557e-5,"MEAN_MOTION_DDOT":0},{"OBJECT_NAME":"COSMOS 886 DEB","OBJECT_ID":"1976-126AN","EPOCH":"2026-03-09T12:28:16.403520","MEAN_MOTION":13.47851871,"ECCENTRICITY":0.0740468,"INCLINATION":65.8391,"RA_OF_ASC_NODE":149.6537,"ARG_OF_PERICENTER":339.428,"MEAN_ANOMALY":17.8327,"EPHEMERIS_TYPE":0,"CLASSIFICATION_TYPE":"U","NORAD_CAT_ID":9826,"ELEMENT_SET_NO":999,"REV_AT_EPOCH":34894,"BSTAR":0.00081724115,"MEAN_MOTION_DOT":2.801e-5,"MEAN_MOTION_DDOT":0}]
